SNUGLITE                
1 43784U 18099AC  26068.67299661  .00013838  00000+0  55963-3 0  9994
2 43784  97.4003 124.0343 0001339 280.5957  79.5129 15.24835996398140
YAOGAN-43 02F           
1 60950U 24156F   26068.54203956  .00011154  00000+0  46453-3 0  9990
2 60950  34.9922 104.6026 0001164 214.3893 145.6747 15.22951134 84247
